[{"name":"AQUA","l1":"1 27424U 02022A   26183.80339389  .00000916  00000+0  19180-3 0  9995","l2":"2 27424  98.4285 153.3989 0000691  82.0164  31.0933 14.62182300285553","cat":"science"},{"name":"ARIRANG-2 (KOMPSAT-2)","l1":"1 29268U 06031A   26183.80002525  .00000429  00000+0  88986-4 0  9996","l2":"2 29268  97.8303   7.4907 0015281  29.0190  29.0263 14.64669910 63764","cat":"science"},{"name":"ARIRANG-3 (KOMPSAT-3)","l1":"1 38338U 12025B   26183.77167558  .00000511  00000+0  11074-3 0  9993","l2":"2 38338  98.1178 140.9633 0006748  70.5600 289.6330 14.62220253753621","cat":"science"},{"name":"ARIRANG-5 (KOMPSAT-5)","l1":"1 39227U 13042A   26183.79559995  .00002562  00000+0  18710-3 0  9995","l2":"2 39227  97.6198  10.2754 0005167  84.9378 275.2438 15.04544704706202","cat":"science"},{"name":"ALOS-2","l1":"1 39766U 14029A   26183.76236233  .00001249  00000+0  17407-3 0  9996","l2":"2 39766  97.9231 280.7031 0001625  90.7515 269.3883 14.79471987653882","cat":"other"},{"name":"ASNARO","l1":"1 40298U 14070A   26183.76608050  .00008369  00000+0  39507-3 0  9999","l2":"2 40298  97.3447 259.4607 0006600 120.5909 239.5977 15.19667243646372","cat":"other"},{"name":"ALSAT-1B","l1":"1 41785U 16059C   26183.80374057  .00000660  00000+0  11182-3 0  9997","l2":"2 41785  97.7744 191.8935 0009381 166.7274 193.4183 14.72287439522875","cat":"other"},{"name":"ARKTIKA-M 1","l1":"1 47719U 21016A   26180.95192977 -.00000281  00000+0  00000+0 0  9994","l2":"2 47719  63.2520  55.7907 7292817 269.9910  14.5481  2.00617895 39040","cat":"other"},{"name":"ARKTIKA-M 2","l1":"1 58584U 23198A   26180.72239164  .00000148  00000+0  00000+0 0  9995","l2":"2 58584  63.2199 152.9641 6905877 267.3845  18.7575  2.00610643 18573","cat":"other"},{"name":"ALOS-4 (DAICHI-4)","l1":"1 60182U 24123A   26183.71407866  .00001690  00000+0  23311-3 0  9996","l2":"2 60182  97.9220 280.6673 0001612  97.3773 262.7622 14.79475423108176","cat":"other"}]