{
 "generated_at": "2026-07-03T08:09:24Z",
 "sources": [
  {
   "name": "CelesTrak",
   "url": "https://celestrak.org/NORAD/elements/",
   "license": "frei verfügbar; Attribution. Ursprünglich USSPACECOM/Space-Track."
  },
  {
   "name": "GCAT (J. McDowell, planet4589.org)",
   "url": "https://planet4589.org/space/gcat/",
   "license": "CC-BY 4.0"
  }
 ],
 "satellites": [
  {
   "norad": 39766,
   "name": "ALOS-2",
   "intl": "2014-029A",
   "group": "resource",
   "gcat": {
    "class": "C",
    "category": "IMG",
    "owner": "JAXA",
    "state": "J"
   },
   "omm": {
    "OBJECT_NAME": "ALOS-2",
    "OBJECT_ID": "2014-029A",
    "EPOCH": "2026-07-02T18:17:48.105312",
    "MEAN_MOTION": 14.79471987,
    "ECCENTRICITY": 0.0001625,
    "INCLINATION": 97.9231,
    "RA_OF_ASC_NODE": 280.7031,
    "ARG_OF_PERICENTER": 90.7515,
    "MEAN_ANOMALY": 269.3883,
    "EPHEMERIS_TYPE": 0,
    "CLASSIFICATION_TYPE": "U",
    "NORAD_CAT_ID": 39766,
    "ELEMENT_SET_NO": 999,
    "REV_AT_EPOCH": 65388,
    "BSTAR": 0.00017407,
    "MEAN_MOTION_DOT": 0.00001249,
    "MEAN_MOTION_DDOT": 0
   }
  },
  {
   "norad": 60182,
   "name": "ALOS-4 (DAICHI-4)",
   "intl": "2024-123A",
   "group": "resource",
   "gcat": {
    "class": "C",
    "category": "IMG",
    "owner": "JAXA",
    "state": "J"
   },
   "omm": {
    "OBJECT_NAME": "ALOS-4 (DAICHI-4)",
    "OBJECT_ID": "2024-123A",
    "EPOCH": "2026-07-02T17:08:16.396224",
    "MEAN_MOTION": 14.79475423,
    "ECCENTRICITY": 0.0001612,
    "INCLINATION": 97.922,
    "RA_OF_ASC_NODE": 280.6673,
    "ARG_OF_PERICENTER": 97.3773,
    "MEAN_ANOMALY": 262.7622,
    "EPHEMERIS_TYPE": 0,
    "CLASSIFICATION_TYPE": "U",
    "NORAD_CAT_ID": 60182,
    "ELEMENT_SET_NO": 999,
    "REV_AT_EPOCH": 10817,
    "BSTAR": 0.00023311,
    "MEAN_MOTION_DOT": 0.0000169,
    "MEAN_MOTION_DDOT": 0
   }
  },
  {
   "norad": 41785,
   "name": "ALSAT-1B",
   "intl": "2016-059C",
   "group": "resource",
   "gcat": {
    "class": "C",
    "category": "IMG",
    "owner": "ASAL",
    "state": "DZ"
   },
   "omm": {
    "OBJECT_NAME": "ALSAT-1B",
    "OBJECT_ID": "2016-059C",
    "EPOCH": "2026-07-02T19:17:23.185248",
    "MEAN_MOTION": 14.72287439,
    "ECCENTRICITY": 0.0009381,
    "INCLINATION": 97.7744,
    "RA_OF_ASC_NODE": 191.8935,
    "ARG_OF_PERICENTER": 166.7274,
    "MEAN_ANOMALY": 193.4183,
    "EPHEMERIS_TYPE": 0,
    "CLASSIFICATION_TYPE": "U",
    "NORAD_CAT_ID": 41785,
    "ELEMENT_SET_NO": 999,
    "REV_AT_EPOCH": 52287,
    "BSTAR": 0.00011182,
    "MEAN_MOTION_DOT": 0.0000066,
    "MEAN_MOTION_DDOT": 0
   }
  },
  {
   "norad": 27424,
   "name": "AQUA",
   "intl": "2002-022A",
   "group": "resource",
   "gcat": {
    "class": "C",
    "category": "IMG",
    "owner": "GSFC",
    "state": "US"
   },
   "omm": {
    "OBJECT_NAME": "AQUA",
    "OBJECT_ID": "2002-022A",
    "EPOCH": "2026-07-02T19:16:53.232096",
    "MEAN_MOTION": 14.621823,
    "ECCENTRICITY": 0.0000691,
    "INCLINATION": 98.4285,
    "RA_OF_ASC_NODE": 153.3989,
    "ARG_OF_PERICENTER": 82.0164,
    "MEAN_ANOMALY": 31.0933,
    "EPHEMERIS_TYPE": 0,
    "CLASSIFICATION_TYPE": "U",
    "NORAD_CAT_ID": 27424,
    "ELEMENT_SET_NO": 999,
    "REV_AT_EPOCH": 28555,
    "BSTAR": 0.0001918,
    "MEAN_MOTION_DOT": 0.00000916,
    "MEAN_MOTION_DDOT": 0
   }
  },
  {
   "norad": 29268,
   "name": "ARIRANG-2 (KOMPSAT-2)",
   "intl": "2006-031A",
   "group": "resource",
   "gcat": {
    "class": "C",
    "category": "IMG",
    "owner": "KARI",
    "state": "KR"
   },
   "omm": {
    "OBJECT_NAME": "ARIRANG-2 (KOMPSAT-2)",
    "OBJECT_ID": "2006-031A",
    "EPOCH": "2026-07-02T19:12:02.181600",
    "MEAN_MOTION": 14.6466991,
    "ECCENTRICITY": 0.0015281,
    "INCLINATION": 97.8303,
    "RA_OF_ASC_NODE": 7.4907,
    "ARG_OF_PERICENTER": 29.019,
    "MEAN_ANOMALY": 29.0263,
    "EPHEMERIS_TYPE": 0,
    "CLASSIFICATION_TYPE": "U",
    "NORAD_CAT_ID": 29268,
    "ELEMENT_SET_NO": 999,
    "REV_AT_EPOCH": 6376,
    "BSTAR": 0.000088986,
    "MEAN_MOTION_DOT": 0.00000429,
    "MEAN_MOTION_DDOT": 0
   }
  },
  {
   "norad": 38338,
   "name": "ARIRANG-3 (KOMPSAT-3)",
   "intl": "2012-025B",
   "group": "resource",
   "gcat": {
    "class": "C",
    "category": "IMG",
    "owner": "KARI",
    "state": "KR"
   },
   "omm": {
    "OBJECT_NAME": "ARIRANG-3 (KOMPSAT-3)",
    "OBJECT_ID": "2012-025B",
    "EPOCH": "2026-07-02T18:31:12.770112",
    "MEAN_MOTION": 14.62220253,
    "ECCENTRICITY": 0.0006748,
    "INCLINATION": 98.1178,
    "RA_OF_ASC_NODE": 140.9633,
    "ARG_OF_PERICENTER": 70.56,
    "MEAN_ANOMALY": 289.633,
    "EPHEMERIS_TYPE": 0,
    "CLASSIFICATION_TYPE": "U",
    "NORAD_CAT_ID": 38338,
    "ELEMENT_SET_NO": 999,
    "REV_AT_EPOCH": 75362,
    "BSTAR": 0.00011074,
    "MEAN_MOTION_DOT": 0.00000511,
    "MEAN_MOTION_DDOT": 0
   }
  },
  {
   "norad": 39227,
   "name": "ARIRANG-5 (KOMPSAT-5)",
   "intl": "2013-042A",
   "group": "resource",
   "gcat": {
    "class": "C",
    "category": "IMG-R",
    "owner": "KARI",
    "state": "KR"
   },
   "omm": {
    "OBJECT_NAME": "ARIRANG-5 (KOMPSAT-5)",
    "OBJECT_ID": "2013-042A",
    "EPOCH": "2026-07-02T19:05:39.835680",
    "MEAN_MOTION": 15.04544704,
    "ECCENTRICITY": 0.0005167,
    "INCLINATION": 97.6198,
    "RA_OF_ASC_NODE": 10.2754,
    "ARG_OF_PERICENTER": 84.9378,
    "MEAN_ANOMALY": 275.2438,
    "EPHEMERIS_TYPE": 0,
    "CLASSIFICATION_TYPE": "U",
    "NORAD_CAT_ID": 39227,
    "ELEMENT_SET_NO": 999,
    "REV_AT_EPOCH": 70620,
    "BSTAR": 0.0001871,
    "MEAN_MOTION_DOT": 0.00002562,
    "MEAN_MOTION_DDOT": 0
   }
  },
  {
   "norad": 47719,
   "name": "ARKTIKA-M 1",
   "intl": "2021-016A",
   "group": "weather",
   "gcat": {
    "class": "C",
    "category": "MET",
    "owner": "ROSK",
    "state": "RU"
   },
   "omm": {
    "OBJECT_NAME": "ARKTIKA-M 1",
    "OBJECT_ID": "2021-016A",
    "EPOCH": "2026-06-29T22:50:46.732128",
    "MEAN_MOTION": 2.00617895,
    "ECCENTRICITY": 0.72928178,
    "INCLINATION": 63.252,
    "RA_OF_ASC_NODE": 55.7907,
    "ARG_OF_PERICENTER": 269.991,
    "MEAN_ANOMALY": 14.5481,
    "EPHEMERIS_TYPE": 0,
    "CLASSIFICATION_TYPE": "U",
    "NORAD_CAT_ID": 47719,
    "ELEMENT_SET_NO": 999,
    "REV_AT_EPOCH": 3904,
    "BSTAR": 0,
    "MEAN_MOTION_DOT": -0.00000281,
    "MEAN_MOTION_DDOT": 0
   }
  },
  {
   "norad": 58584,
   "name": "ARKTIKA-M 2",
   "intl": "2023-198A",
   "group": "weather",
   "gcat": {
    "class": "C",
    "category": "MET",
    "owner": "ROSK",
    "state": "RU"
   },
   "omm": {
    "OBJECT_NAME": "ARKTIKA-M 2",
    "OBJECT_ID": "2023-198A",
    "EPOCH": "2026-06-29T17:20:14.637696",
    "MEAN_MOTION": 2.00610643,
    "ECCENTRICITY": 0.69058771,
    "INCLINATION": 63.2199,
    "RA_OF_ASC_NODE": 152.9641,
    "ARG_OF_PERICENTER": 267.3845,
    "MEAN_ANOMALY": 18.7575,
    "EPHEMERIS_TYPE": 0,
    "CLASSIFICATION_TYPE": "U",
    "NORAD_CAT_ID": 58584,
    "ELEMENT_SET_NO": 999,
    "REV_AT_EPOCH": 1857,
    "BSTAR": 0,
    "MEAN_MOTION_DOT": 0.00000148,
    "MEAN_MOTION_DDOT": 0
   }
  },
  {
   "norad": 40298,
   "name": "ASNARO",
   "intl": "2014-070A",
   "group": "resource",
   "gcat": {
    "class": null,
    "category": "IMG",
    "owner": "JSS",
    "state": "J"
   },
   "omm": {
    "OBJECT_NAME": "ASNARO",
    "OBJECT_ID": "2014-070A",
    "EPOCH": "2026-07-02T18:23:09.355200",
    "MEAN_MOTION": 15.19667243,
    "ECCENTRICITY": 0.00066,
    "INCLINATION": 97.3447,
    "RA_OF_ASC_NODE": 259.4607,
    "ARG_OF_PERICENTER": 120.5909,
    "MEAN_ANOMALY": 239.5977,
    "EPHEMERIS_TYPE": 0,
    "CLASSIFICATION_TYPE": "U",
    "NORAD_CAT_ID": 40298,
    "ELEMENT_SET_NO": 999,
    "REV_AT_EPOCH": 64637,
    "BSTAR": 0.00039507,
    "MEAN_MOTION_DOT": 0.00008369,
    "MEAN_MOTION_DDOT": 0
   }
  }
 ]
}
